OBJECT_NAME,OBJECT_ID,EPOCH,MEAN_MOTION,ECCENTRICITY,INCLINATION,RA_OF_ASC_NODE,ARG_OF_PERICENTER,MEAN_ANOMALY,EPHEMERIS_TYPE,CLASSIFICATION_TYPE,NORAD_CAT_ID,ELEMENT_SET_NO,REV_AT_EPOCH,BSTAR,MEAN_MOTION_DOT,MEAN_MOTION_DDOT
SAUDISAT 1C (SO-50),2002-058C,2026-06-08T14:11:31.852896,14.83028843,.0075448,64.5503,155.5805,264.0559,95.1944,0,U,27607,999,26318,.1494E-3,.1122E-4,0
SAUDISAT 2,2004-025F,2026-06-08T17:13:16.809888,14.56679139,.0023969,98.5506,159.4806,325.2693,34.6938,0,U,28371,999,16451,.78117E-4,.3E-5,0
SAUDISAT 3,2007-012B,2026-06-08T19:50:01.372128,14.71420886,.0013323,98.1453,110.2218,252.8731,107.1017,0,U,31118,999,2651,.52994E-4,.277E-5,0
PISAT,2016-059B,2026-06-08T11:50:20.037408,14.68969100,.00277736,97.8178,160.3198,231.5012,128.3703,0,U,41784,999,51846,.17846743E-3,.1004E-4,0
FLYING LAPTOP,2017-042G,2026-06-08T20:28:33.379968,15.01092236,.0019156,97.4659,315.7097,148.8782,211.3581,0,U,42831,999,48520,.28731E-3,.3633E-4,0
SALSAT,2020-068K,2026-06-08T15:24:23.045760,15.29677178,.0008838,97.8856,162.1872,342.8345,17.2593,0,U,46495,999,31405,.28424E-3,.8099E-4,0
