SAUDISAT 1C (SO-50)     
1 27607U 02058C   26159.59134089  .00001122  00000+0  14940-3 0  9995
2 27607  64.5503 155.5805 0075448 264.0559  95.1944 14.83028843263188
SAUDISAT 2              
1 28371U 04025F   26159.71755567  .00000300  00000+0  78117-4 0  9998
2 28371  98.5506 159.4806 0023969 325.2693  34.6938 14.56679139164519
SAUDISAT 3              
1 31118U 07012B   26159.82640477  .00000277  00000+0  52994-4 0  9993
2 31118  98.1453 110.2218 0013323 252.8731 107.1017 14.71420886 26513
PISAT                   
1 41784U 16059B   26159.49328747  .00001004  00000+0  17847-3 0  9996
2 41784  97.8178 160.3198 0027773 231.5012 128.3703 14.68969100518466
FLYING LAPTOP           
1 42831U 17042G   26159.85316412  .00003633  00000+0  28731-3 0  9993
2 42831  97.4659 315.7097 0019156 148.8782 211.3581 15.01092236485201
SALSAT                  
1 46495U 20068K   26159.64193340  .00008099  00000+0  28424-3 0  9995
2 46495  97.8856 162.1872 0008838 342.8345  17.2593 15.29677178314059
